[{"OBJECT_NAME":"STARLINK-4092","OBJECT_ID":"2022-062J","EPOCH":"2026-03-09T06:52:27.614208","MEAN_MOTION":15.08831953,"ECCENTRICITY":0.00012857,"INCLINATION":53.2184,"RA_OF_ASC_NODE":35.9212,"ARG_OF_PERICENTER":87.3089,"MEAN_ANOMALY":272.805,"EPHEMERIS_TYPE":0,"CLASSIFICATION_TYPE":"U","NORAD_CAT_ID":52838,"ELEMENT_SET_NO":999,"REV_AT_EPOCH":20572,"BSTAR":-3.5215877e-5,"MEAN_MOTION_DOT":-8.48e-6,"MEAN_MOTION_DDOT":0},{"OBJECT_NAME":"OBJECT E","OBJECT_ID":"2025-013E","EPOCH":"2026-03-09T23:59:52.369152","MEAN_MOTION":15.10347623,"ECCENTRICITY":0.00085591,"INCLINATION":97.6477,"RA_OF_ASC_NODE":238.3736,"ARG_OF_PERICENTER":6.9171,"MEAN_ANOMALY":353.2174,"EPHEMERIS_TYPE":0,"CLASSIFICATION_TYPE":"U","NORAD_CAT_ID":62733,"ELEMENT_SET_NO":999,"REV_AT_EPOCH":6224,"BSTAR":0.00032920786,"MEAN_MOTION_DOT":5.34e-5,"MEAN_MOTION_DDOT":0}]
